{"type":"FeatureCollection","features":[{"type":"Feature","geometry":{"type":"Polygon","coordinates":[[[-15.817461,46.48865],[-15.817461,46.48865],[-15.817461,46.48865],[-15.817461,46.48865],[-15.817461,46.48865],[-15.817461,46.48865],[-15.817461,46.48865],[-15.817461,46.48865],[-15.817461,46.48865],[-15.817461,46.48865],[-15.817461,46.48865],[-15.817461,46.48865],[-15.817461,46.48865],[-15.817461,46.48865],[-15.817461,46.48865],[-15.817461,46.48865],[-15.817461,46.48865],[-15.817461,46.48865],[-15.817461,46.48865],[-15.817461,46.48865],[-15.817461,46.48865],[-15.817461,46.48865],[-15.817461,46.48865],[-15.817461,46.48865],[-15.817461,46.48865],[-15.817461,46.48865],[-15.817461,46.48865],[-15.817461,46.48865],[-15.817461,46.48865],[-15.817461,46.48865],[-15.817461,46.48865],[-15.817461,46.48865],[-15.817461,46.48865],[-15.817461,46.48865],[-15.817461,46.48865],[-15.817461,46.48865],[-15.817461,46.48865],[-15.817461,46.48865],[-15.817461,46.48865],[-15.817461,46.48865],[-15.817461,46.48865],[-15.817461,46.48865],[-15.817461,46.48865],[-15.817461,46.48865],[-15.817461,46.48865],[-15.817461,46.48865],[-15.817461,46.48865],[-15.817461,46.48865],[-15.817461,46.48865],[-15.817461,46.48865],[-15.817461,46.48865],[-15.817461,46.48865],[-15.817461,46.48865],[-15.817461,46.48865],[-15.817461,46.48865],[-15.817461,46.48865],[-15.817461,46.48865],[-15.817461,46.48865],[-15.817461,46.48865],[-15.817461,46.48865],[-15.817461,46.48865],[-15.817461,46.48865],[-15.817461,46.48865],[-15.817461,46.48865],[-15.817461,46.48865],[-15.817461,46.48865],[-15.817461,46.48865],[-15.817461,46.48865],[-15.817461,46.48865],[-15.817461,46.48865],[-15.817461,46.48865],[-15.817461,46.48865],[-15.817461,46.48865],[-15.817461,46.48865],[-15.817461,46.48865],[-15.817461,46.48865],[-15.817461,46.48865],[-15.817461,46.48865],[-15.817461,46.48865],[-15.817461,46.48865],[-15.817461,46.48865],[-15.817461,46.48865],[-15.817461,46.48865],[-15.817461,46.48865],[-15.817461,46.48865],[-15.817461,46.48865],[-15.817461,46.48865],[-15.817461,46.48865],[-15.817461,46.48865],[-15.817461,46.48865],[-15.817461,46.48865],[-15.817461,46.48865],[-15.817461,46.48865],[-15.817461,46.48865],[-15.817461,46.48865],[-15.817461,46.48865],[-15.817461,46.48865],[-15.817461,46.48865],[-15.817461,46.48865],[-15.817461,46.48865],[-15.817461,46.48865],[-15.817461,46.48865],[-15.817461,46.48865],[-15.817461,46.48865],[-15.817461,46.48865],[-15.817461,46.48865],[-15.817461,46.48865],[-15.817461,46.48865],[-15.817461,46.48865],[-15.817461,46.48865],[-15.817461,46.48865],[-15.817461,46.48865],[-15.817461,46.48865],[-15.817461,46.48865],[-15.817461,46.48865],[-15.817461,46.48865],[-15.817461,46.48865],[-15.817461,46.48865],[-15.817461,46.48865],[-15.817461,46.48865],[-15.817461,46.48865],[-15.817461,46.48865],[-15.817461,46.48865],[-15.817461,46.48865],[-15.817461,46.48865],[-15.817461,46.48865],[-15.817461,46.48865],[-15.817461,46.48865],[-15.817461,46.48865],[-15.817461,46.48865],[-15.817461,46.48865],[-15.817461,46.48865],[-15.817461,46.48865],[-15.817461,46.48865],[-15.817461,46.48865],[-15.817461,46.48865],[-15.817461,46.48865],[-15.817461,46.48865],[-15.817461,46.48865],[-15.817461,46.48865],[-15.817461,46.48865],[-15.817461,46.48865],[-15.817461,46.48865],[-15.817461,46.48865],[-15.817461,46.48865],[-15.817461,46.48865],[-15.817461,46.48865],[-15.817461,46.48865],[-15.817461,46.48865],[-15.817461,46.48865],[-15.817461,46.48865],[-15.817461,46.48865],[-15.817461,46.48865],[-15.817461,46.48865],[-15.817461,46.48865],[-15.817461,46.48865],[-15.817461,46.48865],[-15.817461,46.48865],[-15.817461,46.48865],[-15.817461,46.48865],[-15.817461,46.48865],[-15.817461,46.48865],[-15.817461,46.48865],[-15.817461,46.48865],[-15.817461,46.48865],[-15.817461,46.48865],[-15.817461,46.48865],[-15.817461,46.48865],[-15.817461,46.48865],[-15.817461,46.48865],[-15.817461,46.48865],[-15.817461,46.48865],[-15.817461,46.48865],[-15.817461,46.48865],[-15.817461,46.48865],[-15.817461,46.48865],[-15.817461,46.48865],[-15.817461,46.48865],[-15.817461,46.48865],[-15.817461,46.48865],[-15.817461,46.48865],[-15.817461,46.48865],[-15.817461,46.48865],[-15.817461,46.48865],[-15.817461,46.48865],[-15.817461,46.48865],[-15.817461,46.48865],[-15.817461,46.48865],[-15.817461,46.48865],[-15.817461,46.48865],[-15.817461,46.48865],[-15.817461,46.48865],[-15.817461,46.48865],[-15.817461,46.48865],[-15.817461,46.48865],[-15.817461,46.48865],[-15.817461,46.48865],[-15.817461,46.48865],[-15.817461,46.48865],[-15.817461,46.48865],[-15.817461,46.48865],[-15.817461,46.48865],[-15.817461,46.48865],[-15.817461,46.48865],[-15.817461,46.48865],[-15.817461,46.48865],[-15.817461,46.48865],[-15.817461,46.48865],[-15.817461,46.48865],[-15.817461,46.48865],[-15.817461,46.48865],[-15.817461,46.48865],[-15.817461,46.48865],[-15.817461,46.48865],[-15.817461,46.48865]]]},"properties":{"address":"MARTELLO HOUSE, STRAND ROAD, KILLINEY","reference":"DS: 1223","council":"dlr","council_label":"Dún Laoghaire-Rathdown County Council","date_added":null,"valuation":null,"on_register":true,"protected_structure":false}},{"type":"Feature","geometry":{"type":"Polygon","coordinates":[[[-15.817462,46.488651],[-15.817462,46.488651],[-15.817462,46.488651],[-15.817462,46.488651],[-15.817462,46.488651],[-15.817462,46.488651],[-15.817462,46.488651],[-15.817462,46.488651],[-15.817462,46.488651],[-15.817462,46.488651],[-15.817462,46.488651],[-15.817462,46.488651],[-15.817462,46.488651],[-15.817462,46.488651],[-15.817462,46.488651],[-15.817462,46.488651],[-15.817462,46.488651],[-15.817462,46.488651],[-15.817462,46.488651],[-15.817462,46.488651],[-15.817462,46.488651],[-15.817462,46.488651],[-15.817462,46.488651],[-15.817462,46.488651],[-15.817462,46.488651],[-15.817462,46.488651],[-15.817462,46.488651],[-15.817462,46.488651]]]},"properties":{"address":"LARABEARG, TIVOLI ROAD NORTH, DUNLAOGHAIRE","reference":"DS: 1528","council":"dlr","council_label":"Dún Laoghaire-Rathdown County Council","date_added":null,"valuation":null,"on_register":true,"protected_structure":false}},{"type":"Feature","geometry":{"type":"Polygon","coordinates":[[[-15.817461,46.48865],[-15.817461,46.48865],[-15.817461,46.48865],[-15.817461,46.48865],[-15.817461,46.48865],[-15.817461,46.48865],[-15.817461,46.48865],[-15.817461,46.48865],[-15.817461,46.48865],[-15.817461,46.48865],[-15.817461,46.48865],[-15.817461,46.48865],[-15.817461,46.48865],[-15.817461,46.48865],[-15.817461,46.48865],[-15.817461,46.48865],[-15.817461,46.48865],[-15.817461,46.48865],[-15.817461,46.48865],[-15.817461,46.48865],[-15.817461,46.48865],[-15.817461,46.48865],[-15.817461,46.48865],[-15.817461,46.48865],[-15.817461,46.48865],[-15.817461,46.48865],[-15.817461,46.48865],[-15.817461,46.48865],[-15.817461,46.48865],[-15.817461,46.48865],[-15.817461,46.48865],[-15.817461,46.48865],[-15.817461,46.48865],[-15.817461,46.48865],[-15.817461,46.48865],[-15.817461,46.48865],[-15.817461,46.48865],[-15.817461,46.48865],[-15.817461,46.48865],[-15.817461,46.48865],[-15.817461,46.48865],[-15.817461,46.48865],[-15.817461,46.48865],[-15.817461,46.48865],[-15.817461,46.48865],[-15.817461,46.48865]]]},"properties":{"address":"SAINT ANNE'S, UPPER DARGLE ROAD, BRAY","reference":"DS: 1549","council":"dlr","council_label":"Dún Laoghaire-Rathdown County Council","date_added":null,"valuation":null,"on_register":true,"protected_structure":false}},{"type":"Feature","geometry":{"type":"Polygon","coordinates":[[[-15.817461,46.488651],[-15.817461,46.488651],[-15.817461,46.488651],[-15.817461,46.488651],[-15.817461,46.488651],[-15.817461,46.488651],[-15.817461,46.488651],[-15.817461,46.488651],[-15.817461,46.488651]]]},"properties":{"address":"3 ALBERT ROAD UPPER, GLENAGEARY, CO.DUBLIN","reference":"DS 1544","council":"dlr","council_label":"Dún Laoghaire-Rathdown County Council","date_added":null,"valuation":null,"on_register":true,"protected_structure":false}},{"type":"Feature","geometry":{"type":"Polygon","coordinates":[[[-15.817461,46.488651],[-15.817461,46.488651],[-15.817461,46.488651],[-15.817461,46.488651],[-15.817461,46.488651],[-15.817461,46.488651],[-15.817461,46.488651],[-15.817461,46.488651],[-15.817461,46.488651],[-15.817461,46.488651],[-15.817461,46.488651],[-15.817461,46.488651],[-15.817461,46.488651],[-15.817461,46.488651],[-15.817461,46.488651]]]},"properties":{"address":"TORCA ROAD, DALKEY, CO.DUBLIN","reference":"DS: 1604","council":"dlr","council_label":"Dún Laoghaire-Rathdown County Council","date_added":null,"valuation":null,"on_register":true,"protected_structure":false}},{"type":"Feature","geometry":{"type":"Polygon","coordinates":[[[-15.817462,46.488651],[-15.817462,46.488651],[-15.817462,46.488651],[-15.817462,46.488651],[-15.817462,46.488651],[-15.817462,46.488651],[-15.817462,46.488651],[-15.817462,46.488651],[-15.817462,46.488651],[-15.817462,46.488651],[-15.817462,46.488651],[-15.817462,46.488651],[-15.817462,46.488651],[-15.817462,46.488651]]]},"properties":{"address":"31 O'DONNELL GARDENS, GLENAGEARY, CO.DUBLIN","reference":"DS: 1622","council":"dlr","council_label":"Dún Laoghaire-Rathdown County Council","date_added":null,"valuation":null,"on_register":true,"protected_structure":false}},{"type":"Feature","geometry":{"type":"Polygon","coordinates":[[[-15.817463,46.488651],[-15.817463,46.488651],[-15.817463,46.488651],[-15.817463,46.488651],[-15.817463,46.488651],[-15.817463,46.488651],[-15.817463,46.488651],[-15.817463,46.488651],[-15.817463,46.488651],[-15.817463,46.488651],[-15.817463,46.488651],[-15.817463,46.488651],[-15.817463,46.488651],[-15.817463,46.488651],[-15.817463,46.488651],[-15.817463,46.488651],[-15.817463,46.488651],[-15.817463,46.488651],[-15.817463,46.488651],[-15.817463,46.488651],[-15.817463,46.488651],[-15.817463,46.488651],[-15.817463,46.488651],[-15.817463,46.488651],[-15.817463,46.488651],[-15.817463,46.488651],[-15.817463,46.488651],[-15.817463,46.488651],[-15.817463,46.488651],[-15.817463,46.488651],[-15.817463,46.488651],[-15.817463,46.488651],[-15.817463,46.488651],[-15.817463,46.488651],[-15.817463,46.488651]]]},"properties":{"address":"WYNNSTAY HOUSE, CLONSKEAGH ROAD, DUBLIN 14","reference":"DS: 1628","council":"dlr","council_label":"Dún Laoghaire-Rathdown County Council","date_added":null,"valuation":null,"on_register":true,"protected_structure":false}},{"type":"Feature","geometry":{"type":"Polygon","coordinates":[[[-15.817463,46.488651],[-15.817463,46.488651],[-15.817463,46.488651],[-15.817463,46.488651],[-15.817463,46.488651],[-15.817463,46.488651],[-15.817463,46.488651],[-15.817463,46.488651],[-15.817463,46.488651],[-15.817463,46.488651]]]},"properties":{"address":"65 DEERPARK ROAD, MOUNT MERRION, CO.DUBLIN","reference":"DS 1646","council":"dlr","council_label":"Dún Laoghaire-Rathdown County Council","date_added":null,"valuation":null,"on_register":true,"protected_structure":false}},{"type":"Feature","geometry":{"type":"Polygon","coordinates":[[[-15.817463,46.488651],[-15.817463,46.488651],[-15.817463,46.488651],[-15.817463,46.488651],[-15.817463,46.488651],[-15.817463,46.488651],[-15.817463,46.488651],[-15.817463,46.488651],[-15.817463,46.488651],[-15.817463,46.488651],[-15.817463,46.488651],[-15.817463,46.488651],[-15.817463,46.488651],[-15.817463,46.488651],[-15.817463,46.488651],[-15.817463,46.488651],[-15.817463,46.488651],[-15.817463,46.488651],[-15.817463,46.488651]]]},"properties":{"address":"22 WOODLAWN PARK, CHURCHTOWN, DUBLIN 14","reference":"DS: 1685","council":"dlr","council_label":"Dún Laoghaire-Rathdown County Council","date_added":null,"valuation":null,"on_register":true,"protected_structure":false}},{"type":"Feature","geometry":{"type":"Polygon","coordinates":[[[-15.817462,46.488651],[-15.817462,46.488651],[-15.817462,46.488651],[-15.817462,46.488651],[-15.817462,46.488651],[-15.817462,46.488651],[-15.817462,46.488651],[-15.817462,46.488651],[-15.817462,46.488651],[-15.817462,46.488651],[-15.817462,46.488651],[-15.817462,46.488651],[-15.817462,46.488651],[-15.817462,46.488651],[-15.817462,46.488651],[-15.817462,46.488651],[-15.817462,46.488651],[-15.817462,46.488651]]]},"properties":{"address":"WAVERLY LODGE, 61 CARYSFORT AVENUE, BLACKROCK, CO.DUBLIN","reference":"DS: 1696","council":"dlr","council_label":"Dún Laoghaire-Rathdown County Council","date_added":null,"valuation":null,"on_register":true,"protected_structure":false}},{"type":"Feature","geometry":{"type":"Polygon","coordinates":[[[-15.817462,46.488651],[-15.817462,46.488651],[-15.817462,46.488651],[-15.817462,46.488651],[-15.817462,46.488651],[-15.817462,46.488651],[-15.817462,46.488651],[-15.817462,46.488651]]]},"properties":{"address":"61 GEORGE'S STREET UPPER, DUN LAOGHAIRE, CO.DUBLIN","reference":"DS 1725","council":"dlr","council_label":"Dún Laoghaire-Rathdown County Council","date_added":null,"valuation":null,"on_register":true,"protected_structure":false}},{"type":"Feature","geometry":{"type":"Polygon","coordinates":[[[-15.817462,46.488651],[-15.817462,46.488651],[-15.817462,46.488651],[-15.817462,46.488651],[-15.817462,46.488651],[-15.817462,46.488651],[-15.817462,46.488651],[-15.817462,46.488651],[-15.817462,46.488651],[-15.817462,46.488651],[-15.817462,46.488651],[-15.817462,46.488651],[-15.817462,46.488651],[-15.817462,46.488651],[-15.817462,46.488651]]]},"properties":{"address":"HARVEY NURSING HOME, GLENAGEARY ROAD UPPER, CO.DUBLIN","reference":"DS: 1705","council":"dlr","council_label":"Dún Laoghaire-Rathdown County Council","date_added":null,"valuation":null,"on_register":true,"protected_structure":false}},{"type":"Feature","geometry":{"type":"Polygon","coordinates":[[[-15.817462,46.488651],[-15.817462,46.488651],[-15.817462,46.488651],[-15.817462,46.488651],[-15.817462,46.488651],[-15.817462,46.488651],[-15.817462,46.488651],[-15.817462,46.488651],[-15.817462,46.488651],[-15.817462,46.488651],[-15.817462,46.488651],[-15.817462,46.488651],[-15.817462,46.488651],[-15.817462,46.488651],[-15.817462,46.488651],[-15.817462,46.488651],[-15.817462,46.488651],[-15.817462,46.488651],[-15.817462,46.488651],[-15.817462,46.488651],[-15.817462,46.488651],[-15.817462,46.488651],[-15.817462,46.488651]]]},"properties":{"address":"YORK HOUSE TIVOLI LODGE, YORK ROAD, CO.DUBLIN","reference":"DS 1450/51","council":"dlr","council_label":"Dún Laoghaire-Rathdown County Council","date_added":null,"valuation":null,"on_register":true,"protected_structure":false}},{"type":"Feature","geometry":{"type":"Polygon","coordinates":[[[-15.817462,46.488651],[-15.817462,46.488651],[-15.817462,46.488651],[-15.817462,46.488651],[-15.817462,46.488651],[-15.817462,46.488651],[-15.817462,46.488651],[-15.817462,46.488651],[-15.817462,46.488651],[-15.817462,46.488651],[-15.817462,46.488651],[-15.817462,46.488651],[-15.817462,46.488651],[-15.817462,46.488651],[-15.817462,46.488651],[-15.817462,46.488651]]]},"properties":{"address":"OLD DUNLEARY HOUSE, DUN LAOGHAIRE, CO.DUBLIN","reference":"DS: 1714","council":"dlr","council_label":"Dún Laoghaire-Rathdown County Council","date_added":null,"valuation":null,"on_register":true,"protected_structure":false}},{"type":"Feature","geometry":{"type":"Polygon","coordinates":[[[-15.817462,46.488651],[-15.817462,46.488651],[-15.817462,46.488651],[-15.817462,46.488651],[-15.817462,46.488651],[-15.817462,46.488651],[-15.817462,46.488651],[-15.817462,46.488651],[-15.817462,46.488651],[-15.817462,46.488651],[-15.817462,46.488651]]]},"properties":{"address":"17 PATRICK STREET, DUN LAOGHAIRE, CO.DUBLIN","reference":"DS: 1712","council":"dlr","council_label":"Dún Laoghaire-Rathdown County Council","date_added":null,"valuation":null,"on_register":true,"protected_structure":false}},{"type":"Feature","geometry":{"type":"Polygon","coordinates":[[[-15.817462,46.488651],[-15.817462,46.488651],[-15.817462,46.488651],[-15.817462,46.488651],[-15.817462,46.488651],[-15.817462,46.488651],[-15.817462,46.488651],[-15.817462,46.488651],[-15.817462,46.488651],[-15.817462,46.488651],[-15.817462,46.488651],[-15.817462,46.488651],[-15.817462,46.488651],[-15.817462,46.488651],[-15.817462,46.488651]]]},"properties":{"address":"1 & 2 ANNAVILLE AVENUE, BLACKROCK, CO.DUBLIN","reference":"DS: 1679","council":"dlr","council_label":"Dún Laoghaire-Rathdown County Council","date_added":null,"valuation":null,"on_register":true,"protected_structure":false}},{"type":"Feature","geometry":{"type":"Point","coordinates":[-6.269446531,53.31333196]},"properties":{"address":"No Address","reference":"DS864","council":"dublin-city","council_label":"Dublin City Council","date_added":"2025-10-20","valuation":null,"on_register":true,"protected_structure":true}},{"type":"Feature","geometry":{"type":"Point","coordinates":[-6.279107817,53.33268051]},"properties":{"address":"4A Brainboro Terrace Dublin 8~|~4B Brainboro Terrace Dublin 8~|~4 Brainboro Terrace Dublin 8 D08PC5E","reference":"DS492","council":"dublin-city","council_label":"Dublin City Council","date_added":"2025-07-28","valuation":null,"on_register":true,"protected_structure":true}},{"type":"Feature","geometry":{"type":"Point","coordinates":[-6.232277086,53.33571042]},"properties":{"address":"58 Shelbourne Road Dublin 4","reference":"DS1247","council":"dublin-city","council_label":"Dublin City Council","date_added":"2025-12-05","valuation":null,"on_register":true,"protected_structure":true}},{"type":"Feature","geometry":{"type":"Point","coordinates":[-6.236036233,53.38919113]},"properties":{"address":"32 Coolgariff Road Dublin 9 D09AE62","reference":"DS1982","council":"dublin-city","council_label":"Dublin City Council","date_added":"2025-09-16","valuation":null,"on_register":true,"protected_structure":true}},{"type":"Feature","geometry":{"type":"Point","coordinates":[-6.208179324,53.37456931]},"properties":{"address":"2 Clanawley Road Dublin 5 D05E516","reference":"DS1516","council":"dublin-city","council_label":"Dublin City Council","date_added":"2025-06-25","valuation":null,"on_register":true,"protected_structure":true}},{"type":"Feature","geometry":{"type":"Point","coordinates":[-6.175628345,53.38459189]},"properties":{"address":"91 Raheny Road Raheny Dublin 5 D05F9W2","reference":"DS1562","council":"dublin-city","council_label":"Dublin City Council","date_added":"2025-10-13","valuation":null,"on_register":true,"protected_structure":true}},{"type":"Feature","geometry":{"type":"Point","coordinates":[-6.290629277,53.35779449]},"properties":{"address":"12 Everton Avenue Dublin 7 D07RX5V","reference":"DS1650","council":"dublin-city","council_label":"Dublin City Council","date_added":"2026-02-11","valuation":null,"on_register":true,"protected_structure":true}},{"type":"Feature","geometry":{"type":"Point","coordinates":[-6.320600183,53.365447]},"properties":{"address":"487 Blackhorse Avenue Dublin 7 D07N6V2","reference":"DS1662","council":"dublin-city","council_label":"Dublin City Council","date_added":"2025-09-02","valuation":null,"on_register":true,"protected_structure":true}},{"type":"Feature","geometry":{"type":"Point","coordinates":[-6.224428641,53.34007247]},"properties":{"address":"No Address","reference":"DS1744","council":"dublin-city","council_label":"Dublin City Council","date_added":"2025-07-10","valuation":null,"on_register":true,"protected_structure":true}},{"type":"Feature","geometry":{"type":"Point","coordinates":[-6.285477809,53.33171564]},"properties":{"address":"231 South Circular Road Dublin 8 D08E6HH","reference":"DS1753","council":"dublin-city","council_label":"Dublin City Council","date_added":"2025-07-09","valuation":null,"on_register":true,"protected_structure":true}},{"type":"Feature","geometry":{"type":"Point","coordinates":[-6.266821906,53.35453586]},"properties":{"address":"118 Dorset Street Upper Dublin 1 D01F2H7~|~Apartment 2 118 Dorset Street Upper Dublin 1 D01Y566~|~Apartment 1 118 Dorset Street Upper Dublin 1 D01DX07","reference":"DS2071","council":"dublin-city","council_label":"Dublin City Council","date_added":"2025-09-02","valuation":null,"on_register":true,"protected_structure":true}},{"type":"Feature","geometry":{"type":"Point","coordinates":[-6.26686222,53.35451104]},"properties":{"address":"119 Dorset Street Upper Dublin 1 D01E7K4","reference":"DS2072","council":"dublin-city","council_label":"Dublin City Council","date_added":"2025-09-02","valuation":null,"on_register":true,"protected_structure":true}},{"type":"Feature","geometry":{"type":"Point","coordinates":[-6.317294299,53.32739662]},"properties":{"address":"17 Slievemore Road Crumlin Dublin 12 D12WT25","reference":"DS2096","council":"dublin-city","council_label":"Dublin City Council","date_added":"2025-06-26","valuation":null,"on_register":true,"protected_structure":true}},{"type":"Feature","geometry":{"type":"Point","coordinates":[-6.222475214,53.33897471]},"properties":{"address":"7-9 Bath Street Dublin 4 D04E294","reference":"DS2006","council":"dublin-city","council_label":"Dublin City Council","date_added":"2025-09-17","valuation":null,"on_register":true,"protected_structure":true}},{"type":"Feature","geometry":{"type":"Point","coordinates":[-6.258015122,53.36370362]},"properties":{"address":"48B-50A Drumcondra Road Lower Dublin 9","reference":"DS2010","council":"dublin-city","council_label":"Dublin City Council","date_added":"2025-09-30","valuation":null,"on_register":true,"protected_structure":true}},{"type":"Feature","geometry":{"type":"Point","coordinates":[-6.20109317,53.36297539]},"properties":{"address":"17 Kincora Road Dublin 3, D03AK59","reference":"DS2043","council":"dublin-city","council_label":"Dublin City Council","date_added":"2025-08-11","valuation":null,"on_register":true,"protected_structure":true}},{"type":"Feature","geometry":{"type":"Point","coordinates":[-6.252054016,53.32397333]},"properties":{"address":"89 Ranelagh Dublin 6 D06K072","reference":"DS2044","council":"dublin-city","council_label":"Dublin City Council","date_added":"2025-08-07","valuation":null,"on_register":true,"protected_structure":true}},{"type":"Feature","geometry":{"type":"Point","coordinates":[-6.315097696,53.33456199]},"properties":{"address":"144 Benmadigan Road Crumlin Dublin 12 D12ED90","reference":"DS2105","council":"dublin-city","council_label":"Dublin City Council","date_added":"2025-06-26","valuation":null,"on_register":true,"protected_structure":true}},{"type":"Feature","geometry":{"type":"Point","coordinates":[-6.296324464,53.38102355]},"properties":{"address":"14 Cloonlara Drive Dublin 11 D11N7F3","reference":"DS2068","council":"dublin-city","council_label":"Dublin City Council","date_added":"2025-08-05","valuation":null,"on_register":true,"protected_structure":true}},{"type":"Feature","geometry":{"type":"Point","coordinates":[-6.264536965,53.35707733]},"properties":{"address":"78 Dorset Street Upper Dublin 1 D01W659","reference":"DS2172","council":"dublin-city","council_label":"Dublin City Council","date_added":"2026-01-14","valuation":null,"on_register":true,"protected_structure":true}},{"type":"Feature","geometry":{"type":"Point","coordinates":[-6.284349439,53.34636034]},"properties":{"address":"40 Watling Street Dublin 8 D08X7Y2","reference":"DS2196","council":"dublin-city","council_label":"Dublin City Council","date_added":"2025-12-01","valuation":null,"on_register":true,"protected_structure":true}},{"type":"Feature","geometry":{"type":"Point","coordinates":[-6.26458298055,53.35517710425]},"properties":{"address":"30 Frederick Street North Dublin 1","reference":"DS743","council":"dublin-city","council_label":"Dublin City Council","date_added":"2023-04-18","valuation":null,"on_register":true,"protected_structure":true}},{"type":"Feature","geometry":{"type":"Point","coordinates":[-6.24269542,53.36481234]},"properties":{"address":"27 Richmond Avenue Dublin 3~|~29 Richmond Avenue Dublin 3","reference":"DS784","council":"dublin-city","council_label":"Dublin City Council","date_added":"2012-12-13","valuation":null,"on_register":true,"protected_structure":true}},{"type":"Feature","geometry":{"type":"Point","coordinates":[-6.296121522,53.3480199]},"properties":{"address":"10 Conyngham Road Dublin 8~|~11 Conyngham Road Dublin 8~|~12 Conyngham Road Dublin 8~|~13 Conyngham Road Dublin 8","reference":"DS040","council":"dublin-city","council_label":"Dublin City Council","date_added":"2019-08-07","valuation":null,"on_register":true,"protected_structure":true}},{"type":"Feature","geometry":{"type":"Point","coordinates":[-6.258085829,53.31897376]},"properties":{"address":"48 Killeen Road Dublin 6 D06E9F9","reference":"DS536","council":"dublin-city","council_label":"Dublin City Council","date_added":"2017-10-03","valuation":null,"on_register":true,"protected_structure":true}},{"type":"Feature","geometry":{"type":"Point","coordinates":[-6.278855814,53.3498637]},"properties":{"address":"86 North King Street Dublin 7","reference":"DS580","council":"dublin-city","council_label":"Dublin City Council","date_added":"2020-07-14","valuation":null,"on_register":true,"protected_structure":true}},{"type":"Feature","geometry":{"type":"Point","coordinates":[-6.243287322,53.35175223]},"properties":{"address":"15/16 Emerald Street Dublin 1","reference":"DS595","council":"dublin-city","council_label":"Dublin City Council","date_added":"2023-05-23","valuation":null,"on_register":true,"protected_structure":true}},{"type":"Feature","geometry":{"type":"Point","coordinates":[-6.25141520536981,53.3545336745509]},"properties":{"address":"6 Terrace Place Dublin 1","reference":"DS514A","council":"dublin-city","council_label":"Dublin City Council","date_added":"2008-10-20","valuation":null,"on_register":true,"protected_structure":true}},{"type":"Feature","geometry":{"type":"Point","coordinates":[-6.295890142,53.34250583]},"properties":{"address":"1 Bow Lane West Dublin 8","reference":"DS698","council":"dublin-city","council_label":"Dublin City Council","date_added":"2018-06-01","valuation":null,"on_register":true,"protected_structure":true}},{"type":"Feature","geometry":{"type":"Point","coordinates":[-6.27422210833684,53.3626265405121]},"properties":{"address":"19 Connaught Street Dublin 7","reference":"DS704","council":"dublin-city","council_label":"Dublin City Council","date_added":"2018-03-23","valuation":null,"on_register":true,"protected_structure":true}},{"type":"Feature","geometry":{"type":"Point","coordinates":[-6.27431723875775,53.3626354268357]},"properties":{"address":"21 Connaught Street Dublin 7","reference":"DS705","council":"dublin-city","council_label":"Dublin City Council","date_added":"2018-03-23","valuation":null,"on_register":true,"protected_structure":true}},{"type":"Feature","geometry":{"type":"Point","coordinates":[-6.266053533,53.33550321]},"properties":{"address":"48 Pleasant's Street Dublin 8 D08K0T3","reference":"DS843","council":"dublin-city","council_label":"Dublin City Council","date_added":"2022-10-14","valuation":null,"on_register":true,"protected_structure":true}},{"type":"Feature","geometry":{"type":"Point","coordinates":[-6.30401794367474,53.3416458153486]},"properties":{"address":"6 Rowserstown Lane Dublin 8","reference":"DS868","council":"dublin-city","council_label":"Dublin City Council","date_added":"2014-09-10","valuation":null,"on_register":true,"protected_structure":true}},{"type":"Feature","geometry":{"type":"Point","coordinates":[-6.28148193,53.34286128]},"properties":{"address":"37 Thomas Court Dublin 8 D08T2R7","reference":"DS911","council":"dublin-city","council_label":"Dublin City Council","date_added":"2016-02-18","valuation":null,"on_register":true,"protected_structure":true}},{"type":"Feature","geometry":{"type":"Point","coordinates":[-6.256028606,53.32646469]},"properties":{"address":"2 Ranelagh Dublin 6 D06KX78","reference":"DS871A","council":"dublin-city","council_label":"Dublin City Council","date_added":"2021-11-12","valuation":null,"on_register":true,"protected_structure":true}},{"type":"Feature","geometry":{"type":"Point","coordinates":[-6.25988168,53.37083884]},"properties":{"address":"10 Ferguson Road Dublin 9 D09K2N2","reference":"DS934","council":"dublin-city","council_label":"Dublin City Council","date_added":"2017-09-26","valuation":null,"on_register":true,"protected_structure":true}},{"type":"Feature","geometry":{"type":"Point","coordinates":[-6.345586868,53.35025816]},"properties":{"address":"1 Mulberry Cottages Martin's Row Chapelizod Dublin 20 D20KW29","reference":"DS898","council":"dublin-city","council_label":"Dublin City Council","date_added":"2015-06-26","valuation":null,"on_register":true,"protected_structure":true}},{"type":"Feature","geometry":{"type":"Point","coordinates":[-6.345528723,53.35022782]},"properties":{"address":"2 Mulberry Cottages Martin's Row Chapelizod Dublin 20 D20WY20","reference":"DS899","council":"dublin-city","council_label":"Dublin City Council","date_added":"2015-06-26","valuation":null,"on_register":true,"protected_structure":true}},{"type":"Feature","geometry":{"type":"Point","coordinates":[-6.345232093,53.35007307]},"properties":{"address":"7 Mulberry Cottages Martin's Row Chapelizod Dublin 20 D20F582","reference":"DS900","council":"dublin-city","council_label":"Dublin City Council","date_added":"2015-06-26","valuation":null,"on_register":true,"protected_structure":true}},{"type":"Feature","geometry":{"type":"Point","coordinates":[-6.345093496,53.35016639]},"properties":{"address":"10 Mulberry Cottages Martin's Row Chapelizod Dublin 20 D20TX99","reference":"DS901","council":"dublin-city","council_label":"Dublin City Council","date_added":"2015-06-26","valuation":null,"on_register":true,"protected_structure":true}},{"type":"Feature","geometry":{"type":"Point","coordinates":[-6.345050444,53.35019843]},"properties":{"address":"11 Mulberry Cottages Martin's Row Chapelizod Dublin 20 D20E524","reference":"DS902","council":"dublin-city","council_label":"Dublin City Council","date_added":"2015-06-26","valuation":null,"on_register":true,"protected_structure":true}},{"type":"Feature","geometry":{"type":"Point","coordinates":[-6.344914516,53.32867106]},"properties":{"address":"Coolfan House Old Naas Road Dublin 12","reference":"DS905","council":"dublin-city","council_label":"Dublin City Council","date_added":"2015-09-04","valuation":null,"on_register":true,"protected_structure":true}},{"type":"Feature","geometry":{"type":"Point","coordinates":[-6.246672101,53.34564519]},"properties":{"address":"6 Creighton Street Dublin 2 D02CF66","reference":"DS937","council":"dublin-city","council_label":"Dublin City Council","date_added":"2016-11-16","valuation":null,"on_register":true,"protected_structure":true}},{"type":"Feature","geometry":{"type":"Point","coordinates":[-6.345363001,53.35014136]},"properties":{"address":"5 Mulberry Cottages Martin's Row Chapelizod Dublin 20 D20PF29","reference":"DS953","council":"dublin-city","council_label":"Dublin City Council","date_added":"2019-04-10","valuation":null,"on_register":true,"protected_structure":true}},{"type":"Feature","geometry":{"type":"Point","coordinates":[-6.273557605,53.34041393]},"properties":{"address":"No Address","reference":"DS980","council":"dublin-city","council_label":"Dublin City Council","date_added":"2017-05-17","valuation":null,"on_register":true,"protected_structure":true}},{"type":"Feature","geometry":{"type":"Point","coordinates":[-6.259915267,53.37079377]},"properties":{"address":"8 Ferguson Road Dublin 9 D09E3E5","reference":"DS982","council":"dublin-city","council_label":"Dublin City Council","date_added":"2017-09-28","valuation":null,"on_register":true,"protected_structure":true}},{"type":"Feature","geometry":{"type":"Point","coordinates":[-6.240732458,53.35946506]},"properties":{"address":"2 Annesley Place Dublin 3 D03T620","reference":"DS1005","council":"dublin-city","council_label":"Dublin City Council","date_added":"2025-04-14","valuation":null,"on_register":true,"protected_structure":true}},{"type":"Feature","geometry":{"type":"Point","coordinates":[-6.267470368,53.3567665]},"properties":{"address":"23 Blessington Street Dublin 7 D07DT6D","reference":"DS1006","council":"dublin-city","council_label":"Dublin City Council","date_added":"2017-09-29","valuation":null,"on_register":true,"protected_structure":true}},{"type":"Feature","geometry":{"type":"Point","coordinates":[-6.239423188,53.35787423]},"properties":{"address":"4 Spencer Place Dublin 3 D03X651","reference":"DS1218","council":"dublin-city","council_label":"Dublin City Council","date_added":"2023-06-27","valuation":null,"on_register":true,"protected_structure":true}},{"type":"Feature","geometry":{"type":"Point","coordinates":[-6.247086816,53.34216566]},"properties":{"address":"11 Bass Place Dublin 2 D02R5P3","reference":"DS1053","council":"dublin-city","council_label":"Dublin City Council","date_added":"2023-04-04","valuation":null,"on_register":true,"protected_structure":true}},{"type":"Feature","geometry":{"type":"Point","coordinates":[-6.281712287,53.34298693]},"properties":{"address":"1 Thomas Court Dublin 8~|~2 Thomas Court Dublin 8~|~3 Thomas Court Dublin 8","reference":"DS1121A","council":"dublin-city","council_label":"Dublin City Council","date_added":"2018-11-28","valuation":null,"on_register":true,"protected_structure":true}},{"type":"Feature","geometry":{"type":"Point","coordinates":[-6.29001819345085,53.3349251863656]},"properties":{"address":"44 Dolphin's Barn Street Dublin 8","reference":"DS1122","council":"dublin-city","council_label":"Dublin City Council","date_added":"2021-05-25","valuation":null,"on_register":true,"protected_structure":true}},{"type":"Feature","geometry":{"type":"Point","coordinates":[-6.29000263446948,53.3349729332171]},"properties":{"address":"45 Dolphin's Barn Street Dublin 8","reference":"DS1123","council":"dublin-city","council_label":"Dublin City Council","date_added":"2021-05-25","valuation":null,"on_register":true,"protected_structure":true}},{"type":"Feature","geometry":{"type":"Point","coordinates":[-6.28997674038851,53.3350202924748]},"properties":{"address":"46 Dolphin's Barn Street Dublin 8","reference":"DS1124","council":"dublin-city","council_label":"Dublin City Council","date_added":"2021-05-25","valuation":null,"on_register":true,"protected_structure":true}},{"type":"Feature","geometry":{"type":"Point","coordinates":[-6.28994803,53.33506563]},"properties":{"address":"47 Dolphin's Barn Street Dublin 8","reference":"DS1125","council":"dublin-city","council_label":"Dublin City Council","date_added":"2021-05-25","valuation":null,"on_register":true,"protected_structure":true}},{"type":"Feature","geometry":{"type":"Point","coordinates":[-6.21298019759224,53.3257291731491]},"properties":{"address":"40 Park Avenue Dublin 4 D04RP74","reference":"DS1263","council":"dublin-city","council_label":"Dublin City Council","date_added":"2020-08-18","valuation":null,"on_register":true,"protected_structure":true}},{"type":"Feature","geometry":{"type":"Point","coordinates":[-6.291380167,53.34284078]},"properties":{"address":"23 James's Street Dublin 8 D08V3P2","reference":"DS1161","council":"dublin-city","council_label":"Dublin City Council","date_added":"2023-02-23","valuation":null,"on_register":true,"protected_structure":true}},{"type":"Feature","geometry":{"type":"Point","coordinates":[-6.28991459978182,53.3351413624264]},"properties":{"address":"48A Dolphin's Barn Street Dublin 8~|~48B Dolphin's Barn Street Dublin 8","reference":"DS1126","council":"dublin-city","council_label":"Dublin City Council","date_added":"2021-05-25","valuation":null,"on_register":true,"protected_structure":true}},{"type":"Feature","geometry":{"type":"Point","coordinates":[-6.28988499014786,53.3352093262894]},"properties":{"address":"49 Dolphin's Barn Street Dublin 8","reference":"DS1127","council":"dublin-city","council_label":"Dublin City Council","date_added":"2021-05-25","valuation":null,"on_register":true,"protected_structure":true}},{"type":"Feature","geometry":{"type":"Point","coordinates":[-6.28984706,53.33529322]},"properties":{"address":"50 Dolphin's Barn Street Dublin 8","reference":"DS1128","council":"dublin-city","council_label":"Dublin City Council","date_added":"2021-05-25","valuation":null,"on_register":true,"protected_structure":true}},{"type":"Feature","geometry":{"type":"Point","coordinates":[-6.27517666115887,53.3301103164845]},"properties":{"address":"36 Clanbrassil Street Upper Dublin 8 D08FW58 ~|~37 Clanbrassil Street Upper Dublin 8","reference":"DS1276","council":"dublin-city","council_label":"Dublin City Council","date_added":"2024-03-28","valuation":null,"on_register":true,"protected_structure":true}},{"type":"Feature","geometry":{"type":"Point","coordinates":[-6.302649871,53.32936497]},"properties":{"address":"No Address","reference":"DS1281","council":"dublin-city","council_label":"Dublin City Council","date_added":"2023-06-26","valuation":null,"on_register":true,"protected_structure":true}},{"type":"Feature","geometry":{"type":"Point","coordinates":[-6.28114143,53.34570217]},"properties":{"address":"39/40 Bridgefoot Street Dublin 8 D08T6F7","reference":"DS1363","council":"dublin-city","council_label":"Dublin City Council","date_added":"2024-02-23","valuation":null,"on_register":true,"protected_structure":true}},{"type":"Feature","geometry":{"type":"Point","coordinates":[-6.25138341364945,53.3544649911191]},"properties":{"address":"7 Terrace Place Dublin 1~|~8 Terrace Place Dublin 1","reference":"DS1371","council":"dublin-city","council_label":"Dublin City Council","date_added":"2019-06-14","valuation":null,"on_register":true,"protected_structure":true}},{"type":"Feature","geometry":{"type":"Point","coordinates":[-6.302931085,53.34065614]},"properties":{"address":"72 Old Kilmainham Dublin 8 D08K2E4~|~73 Old Kilmainham Dublin 8~|~74 Old Kilmainham Dublin 8 D08A6CP","reference":"DS1373","council":"dublin-city","council_label":"Dublin City Council","date_added":"2024-09-26","valuation":null,"on_register":true,"protected_structure":true}},{"type":"Feature","geometry":{"type":"Point","coordinates":[-6.280149449,53.31681885]},"properties":{"address":"287 Harold's Cross Road Dublin 6W D6WVY56","reference":"DS1391","council":"dublin-city","council_label":"Dublin City Council","date_added":"2025-04-14","valuation":null,"on_register":true,"protected_structure":true}},{"type":"Feature","geometry":{"type":"Point","coordinates":[-6.243164994,53.35179541]},"properties":{"address":"42/43 Seville Place Dublin 1 D01H291","reference":"DS594A","council":"dublin-city","council_label":"Dublin City Council","date_added":"2023-05-23","valuation":null,"on_register":true,"protected_structure":true}},{"type":"Feature","geometry":{"type":"Point","coordinates":[-6.250196712,53.35287514]},"properties":{"address":"7/8 Beaver Street Dublin 1 D01WF59","reference":"DS1547","council":"dublin-city","council_label":"Dublin City Council","date_added":"2025-02-06","valuation":null,"on_register":true,"protected_structure":true}},{"type":"Feature","geometry":{"type":"Point","coordinates":[-6.2488633,53.34544565]},"properties":{"address":"113/114 Townsend Street Dublin 2 D02X956 ~|~112 Townsend Street Dublin 2","reference":"DS1789","council":"dublin-city","council_label":"Dublin City Council","date_added":"2024-06-25","valuation":null,"on_register":true,"protected_structure":true}},{"type":"Feature","geometry":{"type":"Point","coordinates":[-6.25166882782683,53.3469149914732]},"properties":{"address":"1-4 City Quay Dublin 2 D02KT32~|~25 Moss Street, Dublin 2","reference":"DS1797","council":"dublin-city","council_label":"Dublin City Council","date_added":"2025-02-11","valuation":null,"on_register":true,"protected_structure":true}},{"type":"Feature","geometry":{"type":"Point","coordinates":[-6.300714415,53.38798066]},"properties":{"address":"2 Church Street Dublin 11","reference":"DS1417","council":"dublin-city","council_label":"Dublin City Council","date_added":"2024-01-30","valuation":null,"on_register":true,"protected_structure":true}},{"type":"Feature","geometry":{"type":"Point","coordinates":[-6.290038617,53.33487645]},"properties":{"address":"43 Dolphin's Barn Street Dublin 8","reference":"DS1518","council":"dublin-city","council_label":"Dublin City Council","date_added":"2021-05-25","valuation":null,"on_register":true,"protected_structure":true}},{"type":"Feature","geometry":{"type":"Point","coordinates":[-6.299987587,53.31769024]},"properties":{"address":"398 Clonard Road Dublin 12 D12H5P2~|~398A Clonard Road Dublin 12 D12K663","reference":"DS1526","council":"dublin-city","council_label":"Dublin City Council","date_added":"2023-03-06","valuation":null,"on_register":true,"protected_structure":true}},{"type":"Feature","geometry":{"type":"Point","coordinates":[-6.266808149,53.37217483]},"properties":{"address":"19 Botanic Avenue Dublin 9 D09A6W8","reference":"DS1563","council":"dublin-city","council_label":"Dublin City Council","date_added":"2023-07-04","valuation":null,"on_register":true,"protected_structure":true}},{"type":"Feature","geometry":{"type":"Point","coordinates":[-6.212639738,53.39418453]},"properties":{"address":"33 Apollo Way Dublin 5 D05XR81","reference":"DS1572","council":"dublin-city","council_label":"Dublin City Council","date_added":"2024-04-05","valuation":null,"on_register":true,"protected_structure":true}},{"type":"Feature","geometry":{"type":"Point","coordinates":[-6.30351920776937,53.3392699536767]},"properties":{"address":"646 South Circular Road Dublin 8~|~646A South Circular Road Dublin 8 D08HDP0~|~646B South Circular Road Dublin 8 D08FK5Y~|~648 South Circular Road Dublin 8 D08XDK4","reference":"DS1581","council":"dublin-city","council_label":"Dublin City Council","date_added":"2024-07-09","valuation":null,"on_register":true,"protected_structure":true}},{"type":"Feature","geometry":{"type":"Point","coordinates":[-6.203286606,53.37494873]},"properties":{"address":"No Address","reference":"DS1585","council":"dublin-city","council_label":"Dublin City Council","date_added":"2024-02-09","valuation":null,"on_register":true,"protected_structure":true}},{"type":"Feature","geometry":{"type":"Point","coordinates":[-6.237689358,53.32285942]},"properties":{"address":"132 Morehampton Road Donnybrook Dublin 4 D04K2P5","reference":"DS1616","council":"dublin-city","council_label":"Dublin City Council","date_added":"2024-07-30","valuation":null,"on_register":true,"protected_structure":true}},{"type":"Feature","geometry":{"type":"Point","coordinates":[-6.261057792,53.36276978]},"properties":{"address":"5 Saint Patrick's Road Dublin 9 D09N2R0","reference":"DS1844","council":"dublin-city","council_label":"Dublin City Council","date_added":"2024-08-20","valuation":null,"on_register":true,"protected_structure":true}},{"type":"Feature","geometry":{"type":"Point","coordinates":[-6.302862474,53.34096322]},"properties":{"address":"No Address","reference":"DS1634A","council":"dublin-city","council_label":"Dublin City Council","date_added":"2022-08-12","valuation":null,"on_register":true,"protected_structure":true}},{"type":"Feature","geometry":{"type":"Point","coordinates":[-6.316060967,53.39112553]},"properties":{"address":"158 Mellowes Road Finglas Dublin 11 D11P9R0","reference":"DS1868","council":"dublin-city","council_label":"Dublin City Council","date_added":"2024-01-25","valuation":null,"on_register":true,"protected_structure":true}},{"type":"Feature","geometry":{"type":"Point","coordinates":[-6.259671313,53.3531473]},"properties":{"address":"93/94 Parnell Street Dublin 1 D01NT63","reference":"DS1909","council":"dublin-city","council_label":"Dublin City Council","date_added":"2024-04-16","valuation":null,"on_register":true,"protected_structure":true}},{"type":"Feature","geometry":{"type":"Point","coordinates":[-6.236855958,53.35855493]},"properties":{"address":"20 Faith Avenue Dublin 3 D03PP21","reference":"DS1916","council":"dublin-city","council_label":"Dublin City Council","date_added":"2024-07-23","valuation":null,"on_register":true,"protected_structure":true}},{"type":"Feature","geometry":{"type":"Point","coordinates":[-6.27494425420736,53.3324638815542]},"properties":{"address":"53 Clanbrassil Street Lower Dublin 8","reference":"DS1280B","council":"dublin-city","council_label":"Dublin City Council","date_added":"2024-06-11","valuation":null,"on_register":true,"protected_structure":true}},{"type":"Feature","geometry":{"type":"Point","coordinates":[-6.255681201,53.33406777]},"properties":{"address":"32 Hatch Street Lower Dublin 2","reference":"DS1948","council":"dublin-city","council_label":"Dublin City Council","date_added":"2025-02-19","valuation":null,"on_register":true,"protected_structure":true}},{"type":"Feature","geometry":{"type":"Point","coordinates":[-6.319334858827,53.3393401855789]},"properties":{"address":"Unit 1 124 Emmet Road Inchicore Dublin 8 D08V085","reference":"DS1999","council":"dublin-city","council_label":"Dublin City Council","date_added":"2025-04-11","valuation":null,"on_register":true,"protected_structure":true}},{"type":"Feature","geometry":{"type":"Point","coordinates":[-6.279753356,53.39116846]},"properties":{"address":"5 Willow Park Road Dublin 11 D11P898","reference":"DS2004","council":"dublin-city","council_label":"Dublin City Council","date_added":"2024-08-29","valuation":null,"on_register":true,"protected_structure":true}},{"type":"Feature","geometry":{"type":"Point","coordinates":[-6.239131054,53.35640745]},"properties":{"address":"No Address","reference":"DS2030","council":"dublin-city","council_label":"Dublin City Council","date_added":"2024-11-29","valuation":null,"on_register":true,"protected_structure":true}},{"type":"Feature","geometry":{"type":"Point","coordinates":[-6.299796033,53.3708821]},"properties":{"address":"531 Carnlough Road Cabra Dublin 7 D07F2V9","reference":"DS2034","council":"dublin-city","council_label":"Dublin City Council","date_added":"2025-01-14","valuation":null,"on_register":true,"protected_structure":true}},{"type":"Feature","geometry":{"type":"Point","coordinates":[-6.27901279139543,53.3378312498526]},"properties":{"address":"No Address","reference":"DS791","council":"dublin-city","council_label":"Dublin City Council","date_added":"2024-11-27","valuation":null,"on_register":true,"protected_structure":true}},{"type":"Feature","geometry":{"type":"Point","coordinates":[-6.279611808,53.32453796]},"properties":{"address":"144 Harold's Cross Road Dublin 6W","reference":"DS250","council":"dublin-city","council_label":"Dublin City Council","date_added":"2007-06-08","valuation":null,"on_register":true,"protected_structure":true}},{"type":"Feature","geometry":{"type":"Point","coordinates":[-6.256855469,53.33573904]},"properties":{"address":"6 Leeson Street Lower Dublin 2 D02H283","reference":"DS575A","council":"dublin-city","council_label":"Dublin City Council","date_added":"2019-04-16","valuation":null,"on_register":true,"protected_structure":true}},{"type":"Feature","geometry":{"type":"Point","coordinates":[-6.287428537,53.35497251]},"properties":{"address":"68 Prussia Street Dublin 7~|~68A Prussia Street Dublin 7","reference":"DS691","council":"dublin-city","council_label":"Dublin City Council","date_added":"2023-04-03","valuation":null,"on_register":true,"protected_structure":true}},{"type":"Feature","geometry":{"type":"Point","coordinates":[-6.239097538,53.36181523]},"properties":{"address":"18 Cadogan Road Dublin 3 D03K650","reference":"DS912","council":"dublin-city","council_label":"Dublin City Council","date_added":"2022-07-08","valuation":null,"on_register":true,"protected_structure":true}},{"type":"Feature","geometry":{"type":"Point","coordinates":[-6.31490310266162,53.3405947050952]},"properties":{"address":"105 Emmet Road Dublin 8~|~107 Emmet Road Dublin 8","reference":"DS1105","council":"dublin-city","council_label":"Dublin City Council","date_added":"2023-05-11","valuation":null,"on_register":true,"protected_structure":true}},{"type":"Feature","geometry":{"type":"Point","coordinates":[-6.275328937,53.32911224]},"properties":{"address":"Wharton Hall Harold's Cross Dublin 6W D6WW838","reference":"DS851","council":"dublin-city","council_label":"Dublin City Council","date_added":"2014-04-01","valuation":null,"on_register":true,"protected_structure":true}},{"type":"Feature","geometry":{"type":"Point","coordinates":[-6.28025641388885,53.328298212526]},"properties":{"address":"Unit 4 Greenmount Industrial Estate Greenmount Avenue Dublin 12 D12K883","reference":"DS884","council":"dublin-city","council_label":"Dublin City Council","date_added":"2015-04-29","valuation":null,"on_register":true,"protected_structure":true}},{"type":"Feature","geometry":{"type":"Point","coordinates":[-6.29304046016359,53.3341982357393]},"properties":{"address":"355 South Circular Road Dublin 8 D08TX20","reference":"DS928","council":"dublin-city","council_label":"Dublin City Council","date_added":"2021-01-06","valuation":null,"on_register":true,"protected_structure":true}},{"type":"Feature","geometry":{"type":"Point","coordinates":[-6.312619812,53.34771541]},"properties":{"address":"2A Chapelizod Road Dublin 8 D08YTE5~|~2B Chapelizod Road Dublin 8~|~2C Chapelizod Road Dublin 8","reference":"DS887","council":"dublin-city","council_label":"Dublin City Council","date_added":"2015-06-04","valuation":null,"on_register":true,"protected_structure":true}},{"type":"Feature","geometry":{"type":"Point","coordinates":[-6.345303913,53.35011054]},"properties":{"address":"6 Mulberry Cottages Martin's Row Chapelizod Dublin 20 D20ED28","reference":"DS954","council":"dublin-city","council_label":"Dublin City Council","date_added":"2019-04-10","valuation":null,"on_register":true,"protected_structure":true}},{"type":"Feature","geometry":{"type":"Point","coordinates":[-6.25752294,53.36636433]},"properties":{"address":"5 Glenarm Avenue Dublin 9 D09E8H7","reference":"DS1066","council":"dublin-city","council_label":"Dublin City Council","date_added":"2022-11-24","valuation":null,"on_register":true,"protected_structure":true}},{"type":"Feature","geometry":{"type":"Point","coordinates":[-6.172477765,53.38181502]},"properties":{"address":"49 Rathmore Park Dublin 5 D05K853","reference":"DS1012","council":"dublin-city","council_label":"Dublin City Council","date_added":"2017-10-19","valuation":null,"on_register":true,"protected_structure":true}},{"type":"Feature","geometry":{"type":"Point","coordinates":[-6.279186159,53.33260535]},"properties":{"address":"1 Brainboro Terrace Dublin 8~|~1A Brainboro Terrace Dublin 8 D08PX9H~|~1B Brainboro Terrace Dublin 8 D08Y5C0","reference":"DS1195","council":"dublin-city","council_label":"Dublin City Council","date_added":"2023-03-20","valuation":null,"on_register":true,"protected_structure":true}},{"type":"Feature","geometry":{"type":"Point","coordinates":[-6.209902429,53.38002392]},"properties":{"address":"12 Artane Cottages Lower Malahide Road Clontarf Dublin 5 D05V4Y8","reference":"DS1287","council":"dublin-city","council_label":"Dublin City Council","date_added":"2024-11-27","valuation":null,"on_register":true,"protected_structure":true}},{"type":"Feature","geometry":{"type":"Point","coordinates":[-6.26561811,53.33968776]},"properties":{"address":"25 Aungier Street Dublin 2 D02X277","reference":"DS1311","council":"dublin-city","council_label":"Dublin City Council","date_added":"2023-11-01","valuation":null,"on_register":true,"protected_structure":true}},{"type":"Feature","geometry":{"type":"Point","coordinates":[-6.292093058,53.33420651]},"properties":{"address":"414 South Circular Road Dublin 8~|~415 South Circular Road Dublin 8~|~416 South Circular Road Dublin 8 D08RF25","reference":"DS1336","council":"dublin-city","council_label":"Dublin City Council","date_added":"2023-02-13","valuation":null,"on_register":true,"protected_structure":true}},{"type":"Feature","geometry":{"type":"Point","coordinates":[-6.343980653,53.34907352]},"properties":{"address":"39A Main Street Chapelizod Dublin 20 D20H971","reference":"DS1380","council":"dublin-city","council_label":"Dublin City Council","date_added":"2023-01-23","valuation":null,"on_register":true,"protected_structure":true}},{"type":"Feature","geometry":{"type":"Point","coordinates":[-6.29363996098251,53.3427750193992]},"properties":{"address":"162 James's Street Dublin 8~|~163 James's Street Dublin 8~|~164 James's Street Dublin 8~|~165 James's Street Dublin 8","reference":"DS1368","council":"dublin-city","council_label":"Dublin City Council","date_added":"2019-06-17","valuation":null,"on_register":true,"protected_structure":true}},{"type":"Feature","geometry":{"type":"Point","coordinates":[-6.201697031,53.31368039]},"properties":{"address":"294 Merrion Road Dublin 4 D04E8E8","reference":"DS1369","council":"dublin-city","council_label":"Dublin City Council","date_added":"2025-06-19","valuation":null,"on_register":true,"protected_structure":true}},{"type":"Feature","geometry":{"type":"Point","coordinates":[-6.233677188,53.35515436]},"properties":{"address":"53 Shelmalier Road Dublin 3 D03X512","reference":"DS1386","council":"dublin-city","council_label":"Dublin City Council","date_added":"2023-09-14","valuation":null,"on_register":true,"protected_structure":true}},{"type":"Feature","geometry":{"type":"Point","coordinates":[-6.256139477,53.35495215]},"properties":{"address":"5 Langrishe Place Dublin 1 D01R8E8","reference":"DS1772","council":"dublin-city","council_label":"Dublin City Council","date_added":"2024-11-14","valuation":null,"on_register":true,"protected_structure":true}},{"type":"Feature","geometry":{"type":"Point","coordinates":[-6.320247607,53.31725048]},"properties":{"address":"No Address","reference":"DS1412","council":"dublin-city","council_label":"Dublin City Council","date_added":"2024-11-11","valuation":null,"on_register":true,"protected_structure":true}},{"type":"Feature","geometry":{"type":"Point","coordinates":[-6.260798441,53.35264282]},"properties":{"address":"77 Parnell Street Dublin 1 D01P8Y7","reference":"DS1040B","council":"dublin-city","council_label":"Dublin City Council","date_added":"2022-01-14","valuation":null,"on_register":true,"protected_structure":true}},{"type":"Feature","geometry":{"type":"Point","coordinates":[-6.260714552,53.35266631]},"properties":{"address":"78 Parnell Street Dublin 1 D01A074","reference":"DS1040C","council":"dublin-city","council_label":"Dublin City Council","date_added":"2022-01-14","valuation":null,"on_register":true,"protected_structure":true}},{"type":"Feature","geometry":{"type":"Point","coordinates":[-6.233894982,53.3549785]},"properties":{"address":"45 Shelmalier Road Dublin 3 D03PW92","reference":"DS1596","council":"dublin-city","council_label":"Dublin City Council","date_added":"2024-12-12","valuation":null,"on_register":true,"protected_structure":true}},{"type":"Feature","geometry":{"type":"Point","coordinates":[-6.301547101,53.36797162]},"properties":{"address":"16 Broombridge Road Cabra Dublin 7 D07C9R0","reference":"DS1600","council":"dublin-city","council_label":"Dublin City Council","date_added":"2024-08-20","valuation":null,"on_register":true,"protected_structure":true}},{"type":"Feature","geometry":{"type":"Point","coordinates":[-6.32472064072602,53.3368225631658]},"properties":{"address":"129 Tyrconnell Road Dublin 8","reference":"DS1601","council":"dublin-city","council_label":"Dublin City Council","date_added":"2023-06-19","valuation":null,"on_register":true,"protected_structure":true}},{"type":"Feature","geometry":{"type":"Point","coordinates":[-6.311327011,53.31476956]},"properties":{"address":"11 Royston Dublin 12 D12NE45","reference":"DS1615","council":"dublin-city","council_label":"Dublin City Council","date_added":"2023-06-06","valuation":null,"on_register":true,"protected_structure":true}},{"type":"Feature","geometry":{"type":"Point","coordinates":[-6.3063243123472,53.3280496732125]},"properties":{"address":"201 Crumlin Road Dublin 12 D12HT21","reference":"DS1644","council":"dublin-city","council_label":"Dublin City Council","date_added":"2024-03-11","valuation":null,"on_register":true,"protected_structure":true}},{"type":"Feature","geometry":{"type":"Point","coordinates":[-6.269279929,53.33072529]},"properties":{"address":"5 Walworth Road Dublin 8 D08Y7C7","reference":"DS1669","council":"dublin-city","council_label":"Dublin City Council","date_added":"2023-06-15","valuation":null,"on_register":true,"protected_structure":true}},{"type":"Feature","geometry":{"type":"Point","coordinates":[-6.262079288,53.36188965]},"properties":{"address":"The School of Irish Wrestling Saint Ignatius Road Dublin 7 D07HD26","reference":"DS1688","council":"dublin-city","council_label":"Dublin City Council","date_added":"2024-12-19","valuation":null,"on_register":true,"protected_structure":true}},{"type":"Feature","geometry":{"type":"Point","coordinates":[-6.257819729,53.34567051]},"properties":{"address":"6 College Street Dublin 2 D02HX59","reference":"DS1850","council":"dublin-city","council_label":"Dublin City Council","date_added":"2024-09-24","valuation":null,"on_register":true,"protected_structure":true}},{"type":"Feature","geometry":{"type":"Point","coordinates":[-6.294595579,53.33645057]},"properties":{"address":"15A Saint Anthony's Road Dublin 8 D08VPW5","reference":"DS1859","council":"dublin-city","council_label":"Dublin City Council","date_added":"2024-07-15","valuation":null,"on_register":true,"protected_structure":true}},{"type":"Feature","geometry":{"type":"Point","coordinates":[-6.26480661881933,53.3558761013575]},"properties":{"address":"17/18 Frederick Street North Dublin 1 D01XP84 ~|~17 Frederick Street North Dublin 1","reference":"DS1748A","council":"dublin-city","council_label":"Dublin City Council","date_added":"2024-08-27","valuation":null,"on_register":true,"protected_structure":true}},{"type":"Feature","geometry":{"type":"Point","coordinates":[-6.26485405358727,53.3559241653722]},"properties":{"address":"17/18 Frederick Street North Dublin 1 D01XP84 ~|~18 Frederick Street North Dublin 1","reference":"DS1748B","council":"dublin-city","council_label":"Dublin City Council","date_added":"2024-08-27","valuation":null,"on_register":true,"protected_structure":true}},{"type":"Feature","geometry":{"type":"Point","coordinates":[-6.300362061,53.31846144]},"properties":{"address":"607 Clonard Road Dublin 12 D12F2D0","reference":"DS2062","council":"dublin-city","council_label":"Dublin City Council","date_added":"2025-01-22","valuation":null,"on_register":true,"protected_structure":true}},{"type":"Feature","geometry":{"type":"Point","coordinates":[-6.266933647,53.3544372]},"properties":{"address":"Typewriter Shop.ie 120 Dorset Street Upper Dublin 1 D01RX53","reference":"DS2073","council":"dublin-city","council_label":"Dublin City Council","date_added":"2025-09-02","valuation":null,"on_register":true,"protected_structure":true}},{"type":"Feature","geometry":{"type":"Point","coordinates":[-6.271667849,53.36415059]},"properties":{"address":"113A Phibsborough Road Dublin 7","reference":"DS576","council":"dublin-city","council_label":"Dublin City Council","date_added":"2026-04-14","valuation":null,"on_register":true,"protected_structure":true}},{"type":"Feature","geometry":{"type":"Point","coordinates":[-6.24031862,53.36287855]},"properties":{"address":"47/49 Fairview Strand Dublin 3 D03E271","reference":"DS1017","council":"dublin-city","council_label":"Dublin City Council","date_added":"2026-04-24","valuation":null,"on_register":true,"protected_structure":true}},{"type":"Feature","geometry":{"type":"Point","coordinates":[-6.270852983,53.3315353]},"properties":{"address":"No Address","reference":"DS1296","council":"dublin-city","council_label":"Dublin City Council","date_added":"2026-04-08","valuation":null,"on_register":true,"protected_structure":true}},{"type":"Feature","geometry":{"type":"Point","coordinates":[-6.26006348618578,53.3530037580083]},"properties":{"address":"88 Parnell Street Dublin 1","reference":"DS1655","council":"dublin-city","council_label":"Dublin City Council","date_added":"2026-04-14","valuation":null,"on_register":true,"protected_structure":true}},{"type":"Feature","geometry":{"type":"Point","coordinates":[-6.308468744,53.33363327]},"properties":{"address":"492 Mourne Road Dublin 12 D12NA71","reference":"DS1693","council":"dublin-city","council_label":"Dublin City Council","date_added":"2026-03-30","valuation":null,"on_register":true,"protected_structure":true}},{"type":"Feature","geometry":{"type":"Point","coordinates":[-6.277475031,53.31431762]},"properties":{"address":"15 Coulson Avenue Dublin 6 D06FV56","reference":"DS2116","council":"dublin-city","council_label":"Dublin City Council","date_added":"2026-04-13","valuation":null,"on_register":true,"protected_structure":true}},{"type":"Feature","geometry":{"type":"Point","coordinates":[-6.295912472,53.35328674]},"properties":{"address":"44 North Circular Road Dublin 7 D07Y6TE","reference":"DS2141","council":"dublin-city","council_label":"Dublin City Council","date_added":"2026-04-13","valuation":null,"on_register":true,"protected_structure":true}},{"type":"Feature","geometry":null,"properties":{"address":"Capri' Bungalow, Whitechurch Road, Rathfarnham, Dublin 16","reference":"1734","council":"south-dublin","council_label":"South Dublin County Council","date_added":"2014-07-29","valuation":"€ 750,000","on_register":true,"protected_structure":false}},{"type":"Feature","geometry":null,"properties":{"address":"Ballyroan House Lodge, Ballyboden Road, Rathfarnham, Dublin 16","reference":"1317A","council":"south-dublin","council_label":"South Dublin County Council","date_added":"2014-11-04","valuation":"€ 225,000","on_register":true,"protected_structure":false}},{"type":"Feature","geometry":{"type":"Point","coordinates":[-6.40399999999994,53.2830000000001]},"properties":{"address":"38 Russell Crescent, Jobstown, Tallaght,   Dublin 24\nD24 NN82","reference":"1726","council":"south-dublin","council_label":"South Dublin County Council","date_added":"2015-02-16","valuation":"€ 145,000","on_register":true,"protected_structure":false}},{"type":"Feature","geometry":{"type":"Point","coordinates":[-6.40399999999994,53.284]},"properties":{"address":"61 Swiftbrook Drive, Tallaght, Dublin 24\nD24 A9C8","reference":"1825","council":"south-dublin","council_label":"South Dublin County Council","date_added":"2018-03-16","valuation":"€ 220,000","on_register":true,"protected_structure":false}},{"type":"Feature","geometry":{"type":"Point","coordinates":[-6.43099999999993,53.3270000000001]},"properties":{"address":"11 Grange View Grove, Clondalkin, Dublin 22\nD22 PY52","reference":"1842","council":"south-dublin","council_label":"South Dublin County Council","date_added":"2023-05-31","valuation":"€ 260,000","on_register":true,"protected_structure":false}},{"type":"Feature","geometry":{"type":"Point","coordinates":[-6.35499999999996,53.272]},"properties":{"address":"76 Allenton Drive, Tallaght, Dublin 24\nD24 XD4R","reference":"1973","council":"south-dublin","council_label":"South Dublin County Council","date_added":"2023-06-22","valuation":"€ 260,000","on_register":true,"protected_structure":false}},{"type":"Feature","geometry":{"type":"Point","coordinates":[-6.36999999999995,53.3530000000001]},"properties":{"address":"11 Turret Road, Palmerstown, Dublin 20\nD20 HN56","reference":"1818","council":"south-dublin","council_label":"South Dublin County Council","date_added":"2023-08-10","valuation":"€ 250,000","on_register":true,"protected_structure":false}},{"type":"Feature","geometry":{"type":"Point","coordinates":[-6.28199999999993,53.287]},"properties":{"address":"6 Barton Road West. Rathfarnham, Dublin 14. \nD14 XF85","reference":"1959","council":"south-dublin","council_label":"South Dublin County Council","date_added":"2023-12-13","valuation":"€ 500,000","on_register":true,"protected_structure":false}},{"type":"Feature","geometry":{"type":"Point","coordinates":[-6.35299999999995,53.3200000000001]},"properties":{"address":"Coolfan House, Robinhood Road, Dublin 22\nD22 VP71","reference":"1988","council":"south-dublin","council_label":"South Dublin County Council","date_added":"2024-01-17","valuation":"€ 250,000","on_register":true,"protected_structure":false}},{"type":"Feature","geometry":null,"properties":{"address":"Derelict House (Beside Coolfan House), Robinhood Road, Dublin 22.","reference":"1989","council":"south-dublin","council_label":"South Dublin County Council","date_added":"2024-01-17","valuation":"€ 125,000","on_register":true,"protected_structure":false}},{"type":"Feature","geometry":{"type":"Point","coordinates":[-6.44299999999993,53.2790000000001]},"properties":{"address":"19 Páirc Mhúire, Saggart, Co. Dublin\nD24 W890","reference":"1864","council":"south-dublin","council_label":"South Dublin County Council","date_added":"2024-05-07","valuation":"€ 270,000","on_register":true,"protected_structure":false}},{"type":"Feature","geometry":{"type":"Point","coordinates":[-6.44299999999993,53.2790000000001]},"properties":{"address":"20 Páirc Mhúire, Saggart, Co. Dublin\nD24 W504","reference":"1864A","council":"south-dublin","council_label":"South Dublin County Council","date_added":"2024-05-07","valuation":"€ 250,000","on_register":true,"protected_structure":false}},{"type":"Feature","geometry":{"type":"Point","coordinates":[-6.32199999999995,53.3070000000001]},"properties":{"address":"12 Greentrees Road, Walkinstown, Dublin 12           D12 HW95","reference":"1833","council":"south-dublin","council_label":"South Dublin County Council","date_added":"2024-08-28","valuation":"€ 475,000","on_register":true,"protected_structure":false}},{"type":"Feature","geometry":{"type":"Point","coordinates":[-6.47899999999993,53.28]},"properties":{"address":"Site at Long Acre, School Road, Rathcoole, Co. Dublin, D24 AY26","reference":"2024","council":"south-dublin","council_label":"South Dublin County Council","date_added":"2024-09-10","valuation":"€ 550,000","on_register":true,"protected_structure":false}},{"type":"Feature","geometry":{"type":"Point","coordinates":[-6.35999999999996,53.2830000000001]},"properties":{"address":"Sites at 10 & 11 Old Bawn Road, Tallaght, Dublin 24\nD24 PF6W","reference":"1940","council":"south-dublin","council_label":"South Dublin County Council","date_added":"2024-10-02","valuation":"€ 475,000","on_register":true,"protected_structure":false}},{"type":"Feature","geometry":{"type":"Point","coordinates":[-6.32499999999993,53.3070000000001]},"properties":{"address":"5 Mountdown Drive, Manor Estate, Dublin 12\nD12 XE30","reference":"2006","council":"south-dublin","council_label":"South Dublin County Council","date_added":"2024-10-29","valuation":"€ 400,000","on_register":true,"protected_structure":false}},{"type":"Feature","geometry":{"type":"Point","coordinates":[-6.30199999999996,53.292]},"properties":{"address":"53 Marian Crescent, Rathfarnham, Dublin 16\nD14 X8C4","reference":"1185","council":"south-dublin","council_label":"South Dublin County Council","date_added":"2024-10-30","valuation":"€ 520,000","on_register":true,"protected_structure":false}},{"type":"Feature","geometry":null,"properties":{"address":"3 Derelict Houses on Main Street, Rathcoole, Co Dublin","reference":"1886","council":"south-dublin","council_label":"South Dublin County Council","date_added":"2025-02-19","valuation":"€ 280,000","on_register":true,"protected_structure":false}},{"type":"Feature","geometry":null,"properties":{"address":"Derelict Site to Main Street, Rathcoole, Co Dublin","reference":"1991","council":"south-dublin","council_label":"South Dublin County Council","date_added":"2025-06-16","valuation":"€ 140,000","on_register":true,"protected_structure":false}},{"type":"Feature","geometry":null,"properties":{"address":"2 Cottages, Main Street, Rathcoole, Co Dublin","reference":"1631","council":"south-dublin","council_label":"South Dublin County Council","date_added":"2025-09-26","valuation":null,"on_register":true,"protected_structure":false}},{"type":"Feature","geometry":{"type":"Point","coordinates":[-6.33599999999996,53.3120000000001]},"properties":{"address":"1 St Brendan's Crescent, Greenhills, Dublin 12\nD12 A4X2","reference":"2046","council":"south-dublin","council_label":"South Dublin County Council","date_added":"2025-10-23","valuation":null,"on_register":true,"protected_structure":false}},{"type":"Feature","geometry":{"type":"Point","coordinates":[-6.29899999999998,53.272]},"properties":{"address":"Edmondstown Mills, Edmondstown Road, Rathfarnham, Dublin 16 D16 H599","reference":"2039","council":"south-dublin","council_label":"South Dublin County Council","date_added":"2026-01-22","valuation":null,"on_register":true,"protected_structure":false}},{"type":"Feature","geometry":{"type":"Point","coordinates":[-6.39699999999993,53.323]},"properties":{"address":"Riverside House, Old Nangor Road, Clondalkin, Dublin 22 D22 KT20","reference":"1715","council":"south-dublin","council_label":"South Dublin County Council","date_added":"2026-01-22","valuation":null,"on_register":true,"protected_structure":false}},{"type":"Feature","geometry":{"type":"Point","coordinates":[-6.34304999999995,53.289]},"properties":{"address":"53 Glenview Park,, Tallaght, Dublin 24 D24A2KP","reference":"1978","council":"south-dublin","council_label":"South Dublin County Council","date_added":"2026-03-05","valuation":null,"on_register":true,"protected_structure":false}},{"type":"Feature","geometry":{"type":"Point","coordinates":[-6.47276999999997,53.2810000000001]},"properties":{"address":"Lands at Tay Lane, Rathcoole, Co Dublin","reference":"2032","council":"south-dublin","council_label":"South Dublin County Council","date_added":"2026-03-24","valuation":null,"on_register":true,"protected_structure":false}},{"type":"Feature","geometry":{"type":"Point","coordinates":[-6.39726999999993,53.347]},"properties":{"address":"44A Harelawn Drive, Clondalkin, Dublin 22  D22F8N4","reference":"2023A","council":"south-dublin","council_label":"South Dublin County Council","date_added":"2026-05-28","valuation":null,"on_register":true,"protected_structure":false}},{"type":"Feature","geometry":{"type":"Polygon","coordinates":[[[-6.70591135522768,52.9412682201813],[-6.70574696527092,52.9413617924558],[-6.7056080545507,52.9412677704772],[-6.70532003590801,52.9411576169366],[-6.70568233283723,52.9410279132851],[-6.70591135522768,52.9412682201813]]]},"properties":{"address":"","reference":"DS113","council":"wicklow","council_label":"Wicklow County Council","date_added":null,"valuation":null,"on_register":true,"protected_structure":false}},{"type":"Feature","geometry":{"type":"Polygon","coordinates":[[[-6.71216229875759,52.9416717429393],[-6.712274923537,52.9418560788895],[-6.71179584840758,52.9419483893202],[-6.71169130804092,52.941757006192],[-6.71216229875759,52.9416717429393]]]},"properties":{"address":"","reference":"DS164","council":"wicklow","council_label":"Wicklow County Council","date_added":null,"valuation":null,"on_register":true,"protected_structure":false}},{"type":"Feature","geometry":{"type":"Polygon","coordinates":[[[-6.15207122829549,52.7970000575283],[-6.15206046355191,52.7970688619541],[-6.15195479167193,52.7970624592235],[-6.15196183689608,52.7969888401696],[-6.15205202520973,52.7969902450201],[-6.15207122829549,52.7970000575283]]]},"properties":{"address":"","reference":"DS/171","council":"wicklow","council_label":"Wicklow County Council","date_added":null,"valuation":null,"on_register":true,"protected_structure":false}},{"type":"Feature","geometry":{"type":"Polygon","coordinates":[[[-6.16235400136633,52.7964320056755],[-6.16238263896185,52.7963111536709],[-6.16278169907768,52.7963387393204],[-6.16276362399362,52.7964882951238],[-6.16235400136633,52.7964320056755]]]},"properties":{"address":"","reference":"DS/172","council":"wicklow","council_label":"Wicklow County Council","date_added":null,"valuation":null,"on_register":true,"protected_structure":false}},{"type":"Feature","geometry":{"type":"Point","coordinates":[-6.672224,53.403958]},"properties":{"address":"Mary Hickeys Sweet Shop, Church Street, Kilcock","reference":"DS-2007-K02","council":"kildare","council_label":"Kildare County Council","date_added":"2011-06-22","valuation":null,"on_register":true,"protected_structure":false}},{"type":"Feature","geometry":{"type":"Point","coordinates":[-6.657409,53.221468]},"properties":{"address":"Market House, Naas","reference":"DS-2015-Naas13","council":"kildare","council_label":"Kildare County Council","date_added":"2015-04-24","valuation":null,"on_register":true,"protected_structure":false}},{"type":"Feature","geometry":{"type":"Point","coordinates":[-6.797469,53.178432]},"properties":{"address":"Old Band Hall, Cutlery Road, Newbridge","reference":"DS-2007-N03","council":"kildare","council_label":"Kildare County Council","date_added":"2016-02-12","valuation":null,"on_register":true,"protected_structure":false}},{"type":"Feature","geometry":{"type":"Point","coordinates":[-6.993051,52.996719]},"properties":{"address":"30 Woodstock Street, Athy","reference":"DS-2007-A27","council":"kildare","council_label":"Kildare County Council","date_added":"2016-05-27","valuation":null,"on_register":true,"protected_structure":false}},{"type":"Feature","geometry":{"type":"Point","coordinates":[-6.993101,52.996746]},"properties":{"address":"31 Woodstock Street, Athy","reference":"DS-2007-A28","council":"kildare","council_label":"Kildare County Council","date_added":"2016-05-27","valuation":null,"on_register":true,"protected_structure":false}},{"type":"Feature","geometry":{"type":"Point","coordinates":[-6.817361,53.269734]},"properties":{"address":"Grove Lane, Robertstown","reference":"DS-2011-R04","council":"kildare","council_label":"Kildare County Council","date_added":"2017-02-06","valuation":null,"on_register":true,"protected_structure":false}},{"type":"Feature","geometry":{"type":"Point","coordinates":[-6.811203,53.177616]},"properties":{"address":"2198 Highfield Estate, Newbridge","reference":"DS-2016-Newbridge01","council":"kildare","council_label":"Kildare County Council","date_added":"2019-12-05","valuation":null,"on_register":true,"protected_structure":false}},{"type":"Feature","geometry":{"type":"Point","coordinates":[-6.989489,52.99456]},"properties":{"address":"Barrack Lane, Athy","reference":"DS-2010-A1","council":"kildare","council_label":"Kildare County Council","date_added":"2019-12-05","valuation":null,"on_register":true,"protected_structure":false}},{"type":"Feature","geometry":{"type":"Point","coordinates":[-7.003684,53.224746]},"properties":{"address":"Leinster Street, Rathangan","reference":"DS-2018-02","council":"kildare","council_label":"Kildare County Council","date_added":"2021-11-04","valuation":null,"on_register":true,"protected_structure":false}},{"type":"Feature","geometry":{"type":"Point","coordinates":[-6.983403,52.992036]},"properties":{"address":"19 Emily Square, Athy","reference":"DS-2020-02","council":"kildare","council_label":"Kildare County Council","date_added":"2021-11-04","valuation":null,"on_register":true,"protected_structure":false}},{"type":"Feature","geometry":{"type":"Point","coordinates":[-6.531141,53.334281]},"properties":{"address":"Bungalow, Hazelhatch Road, Celbridge","reference":"DS-2017-Celbridge01","council":"kildare","council_label":"Kildare County Council","date_added":"2022-10-14","valuation":null,"on_register":true,"protected_structure":false}},{"type":"Feature","geometry":{"type":"Point","coordinates":[-6.665421,53.219056]},"properties":{"address":"3 Abbey Road, Naas","reference":"DS-2015-Naas-10","council":"kildare","council_label":"Kildare County Council","date_added":"2023-03-28","valuation":null,"on_register":true,"protected_structure":false}},{"type":"Feature","geometry":{"type":"Point","coordinates":[-7.070817,53.138716]},"properties":{"address":"Skirteen, Monasterevin, Co Kildare","reference":"DS-2021-08","council":"kildare","council_label":"Kildare County Council","date_added":"2023-04-24","valuation":null,"on_register":true,"protected_structure":false}},{"type":"Feature","geometry":{"type":"Point","coordinates":[-6.668858,53.399043]},"properties":{"address":"Lions House Pub, Kilcock","reference":"DS-2022-27","council":"kildare","council_label":"Kildare County Council","date_added":"2023-05-22","valuation":null,"on_register":true,"protected_structure":false}},{"type":"Feature","geometry":{"type":"Point","coordinates":[-6.489943,53.363814]},"properties":{"address":"33 Main Street, Leixlip","reference":"DS-2021-19","council":"kildare","council_label":"Kildare County Council","date_added":"2023-06-20","valuation":null,"on_register":true,"protected_structure":false}},{"type":"Feature","geometry":{"type":"Point","coordinates":[-6.665421,53.219056]},"properties":{"address":"2 Abbey Road, Naas","reference":"DS-2022-08","council":"kildare","council_label":"Kildare County Council","date_added":"2023-06-20","valuation":null,"on_register":true,"protected_structure":false}},{"type":"Feature","geometry":{"type":"Point","coordinates":[-6.797469,53.178432]},"properties":{"address":"Cutlery Road, Newbridge","reference":"DS-2023-16","council":"kildare","council_label":"Kildare County Council","date_added":"2023-09-07","valuation":null,"on_register":true,"protected_structure":false}},{"type":"Feature","geometry":{"type":"Point","coordinates":[-6.656894,53.222638]},"properties":{"address":"41 St. Corban's Place, Naas","reference":"DS-2020-Naas07","council":"kildare","council_label":"Kildare County Council","date_added":"2023-09-07","valuation":null,"on_register":true,"protected_structure":false}},{"type":"Feature","geometry":{"type":"Point","coordinates":[-6.910627,53.156895]},"properties":{"address":"Bargain Store, Kildare Town, Co. Kildare","reference":"DS-2022-11","council":"kildare","council_label":"Kildare County Council","date_added":"2023-09-25","valuation":null,"on_register":true,"protected_structure":false}},{"type":"Feature","geometry":{"type":"Point","coordinates":[-6.487709,53.363944]},"properties":{"address":"1 & 2, Ralph Square, Leixlip","reference":"DS-2023-06","council":"kildare","council_label":"Kildare County Council","date_added":"2023-09-25","valuation":null,"on_register":true,"protected_structure":false}},{"type":"Feature","geometry":{"type":"Point","coordinates":[-6.487709,53.363944]},"properties":{"address":"Ralph Square, Leixlip","reference":"DS-2023-18","council":"kildare","council_label":"Kildare County Council","date_added":"2023-09-15","valuation":null,"on_register":true,"protected_structure":false}},{"type":"Feature","geometry":{"type":"Point","coordinates":[-6.523286,53.323612]},"properties":{"address":"Property 1 at Hazelhatch Train Station, Celbridge","reference":"DS-2018-Celbridge01","council":"kildare","council_label":"Kildare County Council","date_added":"2023-09-25","valuation":null,"on_register":true,"protected_structure":false}},{"type":"Feature","geometry":{"type":"Point","coordinates":[-6.523286,53.323612]},"properties":{"address":"Property 2 at Hazelhatch Train Station, Celbridge","reference":"DS-2018-Celbridge02","council":"kildare","council_label":"Kildare County Council","date_added":"2023-09-25","valuation":null,"on_register":true,"protected_structure":false}},{"type":"Feature","geometry":{"type":"Point","coordinates":[-6.523286,53.323612]},"properties":{"address":"Property 3 at Hazelhatch Train Station, Celbridge","reference":"DS-2018-Celbridge03","council":"kildare","council_label":"Kildare County Council","date_added":"2023-09-25","valuation":null,"on_register":true,"protected_structure":false}},{"type":"Feature","geometry":{"type":"Point","coordinates":[-6.987257,52.991422]},"properties":{"address":"19 Duke Street, Athy","reference":"DS-2024-02","council":"kildare","council_label":"Kildare County Council","date_added":"2024-05-02","valuation":null,"on_register":true,"protected_structure":false}},{"type":"Feature","geometry":{"type":"Point","coordinates":[-6.658135,53.215599]},"properties":{"address":"130 Lakelands, Naas","reference":"DS-2024-03","council":"kildare","council_label":"Kildare County Council","date_added":"2024-05-02","valuation":null,"on_register":true,"protected_structure":false}},{"type":"Feature","geometry":{"type":"Point","coordinates":[-6.983796,52.992955]},"properties":{"address":"7 Stanhope Street, Athy","reference":"DS-2024-04","council":"kildare","council_label":"Kildare County Council","date_added":"2024-05-02","valuation":null,"on_register":true,"protected_structure":false}},{"type":"Feature","geometry":{"type":"Point","coordinates":[-6.984279,52.992142]},"properties":{"address":"16/17 Leinster Street, Athy","reference":"DS-2024-05","council":"kildare","council_label":"Kildare County Council","date_added":"2024-05-02","valuation":null,"on_register":true,"protected_structure":false}},{"type":"Feature","geometry":{"type":"Point","coordinates":[-6.673705,53.254556]},"properties":{"address":"617 Castlesize, Sallins, Co Kildare","reference":"DS-2023-10","council":"kildare","council_label":"Kildare County Council","date_added":"2024-05-08","valuation":null,"on_register":true,"protected_structure":false}},{"type":"Feature","geometry":{"type":"Point","coordinates":[-6.997498,53.222184]},"properties":{"address":"Former Garda Station, Leinster Street, Rathangan, Co.Kildare","reference":"DS-2023-28","council":"kildare","council_label":"Kildare County Council","date_added":"2024-08-08","valuation":null,"on_register":true,"protected_structure":false}},{"type":"Feature","geometry":{"type":"Point","coordinates":[-6.837276,52.910883]},"properties":{"address":"Hennessy Garage, Main Street, Castledermot","reference":"DS-2024-16","council":"kildare","council_label":"Kildare County Council","date_added":"2024-09-09","valuation":null,"on_register":true,"protected_structure":false}},{"type":"Feature","geometry":{"type":"Point","coordinates":[-6.656842,53.228648]},"properties":{"address":"107 Monread Heights, Naas","reference":"DS-2015-N09","council":"kildare","council_label":"Kildare County Council","date_added":"2025-02-05","valuation":null,"on_register":true,"protected_structure":false}},{"type":"Feature","geometry":{"type":"Point","coordinates":[-6.988497,52.991306]},"properties":{"address":"30 Duke Street, Athy","reference":"DS-2024-24","council":"kildare","council_label":"Kildare County Council","date_added":"2025-02-17","valuation":null,"on_register":true,"protected_structure":false}},{"type":"Feature","geometry":{"type":"Point","coordinates":[-6.796766,53.18253]},"properties":{"address":"Eyre Street, Newbridge","reference":"DS-2024-35","council":"kildare","council_label":"Kildare County Council","date_added":"2025-05-28","valuation":null,"on_register":true,"protected_structure":false}},{"type":"Feature","geometry":{"type":"Point","coordinates":[-6.814615,53.269067]},"properties":{"address":"Former Grand Canal Hotel, Robertstown","reference":"DS-2024-37","council":"kildare","council_label":"Kildare County Council","date_added":"2025-08-18","valuation":null,"on_register":true,"protected_structure":false}},{"type":"Feature","geometry":{"type":"Point","coordinates":[-6.837276,52.910883]},"properties":{"address":"Main Street, Castledermot","reference":"DS-2023-26","council":"kildare","council_label":"Kildare County Council","date_added":"2025-09-09","valuation":null,"on_register":true,"protected_structure":false}},{"type":"Feature","geometry":{"type":"Point","coordinates":[-6.651411,53.210934]},"properties":{"address":"82 Hazelmere, Naas","reference":"DS-2025-35","council":"kildare","council_label":"Kildare County Council","date_added":"2025-09-29","valuation":null,"on_register":true,"protected_structure":false}},{"type":"Feature","geometry":{"type":"Point","coordinates":[-6.837276,52.910883]},"properties":{"address":"Main Street, Castledermot","reference":"DS-2025-38","council":"kildare","council_label":"Kildare County Council","date_added":"2026-01-23","valuation":null,"on_register":true,"protected_structure":false}},{"type":"Feature","geometry":{"type":"Point","coordinates":[-6.983987,52.992213]},"properties":{"address":"36 Leinster Street, Athy","reference":"DS-2024-22","council":"kildare","council_label":"Kildare County Council","date_added":"2024-09-16","valuation":null,"on_register":true,"protected_structure":false}}]}